NORAD_CAT_ID,OBJECT_NAME,OBJECT_TYPE,EPOCH,MEAN_MOTION,ECCENTRICITY,INCLINATION,RA_OF_ASC_NODE,ARG_OF_PERICENTER,MEAN_ANOMALY,BSTAR,MEAN_MOTION_DOT,MEAN_MOTION_DDOT,TLE_LINE0,TLE_LINE1,TLE_LINE2,SEMIMAJOR_AXIS,PERIOD,APOGEE,PERIGEE,DECAYED
52630.0,STARLINK-3989,PAYLOAD,2022-07-19 22:00:00,15.34545795,0.0001132,53.2175,115.201,80.6997,311.4282,-0.034321,-0.01069051,0.0,0 STARLINK-3989,1 52630U 22052AJ  22200.91667824 -.01069051  00000-0 -34321-1 0  9994,2 52630  53.2175 115.2010 0001132  80.6997 311.4282 15.34545795  1300,6840.406999999997,93.839,463.046,461.49800000000016,0.0
52630.0,STARLINK-3989,PAYLOAD,2022-07-20 14:00:01,15.3302441,0.0001301,53.2174,112.092,65.4864,49.765,-0.0358879999999999,-0.01065317,0.0,0 STARLINK-3989,1 52630U 22052AJ  22201.58334491 -.01065317  00000-0 -35888-1 0  9999,2 52630  53.2174 112.0920 0001301  65.4864  49.7650 15.33024410  1301,6844.932,93.932,467.687,465.906,0.0
52630.0,STARLINK-3989,PAYLOAD,2022-07-20 22:00:01,15.32265194,0.0001496,53.2174,110.5413,58.7356,96.771,-0.036769,-0.01065582,0.0,0 STARLINK-3989,1 52630U 22052AJ  22201.91668981 -.01065582  00000-0 -36769-1 0  9993,2 52630  53.2174 110.5413 0001496  58.7356  96.7710 15.32265194  1301,6847.193,93.979,470.082,468.033,0.0
52630.0,STARLINK-3989,PAYLOAD,2022-07-21 06:00:00,15.31505816,0.0001333,53.2172,108.9927,81.4217,113.2995,-0.037633,-0.01064877,0.0,0 STARLINK-3989,1 52630U 22052AJ  22202.25001157 -.01064877  00000-0 -37633-1 0  9994,2 52630  53.2172 108.9927 0001333  81.4217 113.2995 15.31505816 10957,6849.456,94.025,472.234,470.408,0.0
52630.0,STARLINK-3989,PAYLOAD,2022-07-21 14:00:01,15.30745378,0.0001344,53.2173,107.4428,71.173,161.9803,-0.038498,-0.01063798,0.0,0 STARLINK-3989,1 52630U 22052AJ  22202.58335648 -.01063798  00000-0 -38498-1 0  9996,2 52630  53.2173 107.4428 0001344  71.1730 161.9803 15.30745378  1301,6851.724,94.072,474.51,472.668,0.0
52630.0,STARLINK-3989,PAYLOAD,2022-07-21 22:00:00,15.299860999999998,0.0001348,53.2174,105.8981,70.3819,200.1605,-0.039418,-0.01063734,0.0,0 STARLINK-3989,1 52630U 22052AJ  22202.91667824 -.01063734  00000-0 -39418-1 0  9990,2 52630  53.2174 105.8981 0001348  70.3819 200.1605 15.29986100  1305,6853.991,94.119,476.78,474.932,0.0
52630.0,STARLINK-3989,PAYLOAD,2022-07-22 04:00:00,15.29412996,0.0001434,53.2174,104.7406,66.8586,141.1763,-0.039898,-0.01058197,0.0,0 STARLINK-3989,1 52630U 22052AJ  22203.16667824 -.01058197  00000-0 -39898-1 0  9997,2 52630  53.2174 104.7406 0001434  66.8586 141.1763 15.29412996 11095,6855.703,94.154,478.551,476.585,0.0
52630.0,STARLINK-3989,PAYLOAD,2022-07-22 06:00:00,15.29228863,0.0001230999999999,53.2171,104.3544,68.1255,238.9569,-0.040483,-0.01066795,0.0,0 STARLINK-3989,1 52630U 22052AJ  22203.25001157 -.01066795  00000-0 -40483-1 0  9993,2 52630  53.2171 104.3544 0001231  68.1255 238.9569 15.29228863  1304,6856.253000000002,94.165,478.962,477.274,0.0
52630.0,STARLINK-3989,PAYLOAD,2022-07-22 20:00:01,15.27898044,0.0001392,53.2175,101.6552,62.5399,216.2951,-0.042079,-0.01064495,0.0,0 STARLINK-3989,1 52630U 22052AJ  22203.83334491 -.01064495  00000-0 -42079-1 0  9995,2 52630  53.2175 101.6552 0001392  62.5399 216.2951 15.27898044 11196,6860.234,94.247,483.054,481.144,0.0
52630.0,STARLINK-3989,PAYLOAD,2022-07-22 22:00:00,15.27709142,0.0001361999999999,53.2174,101.2708,53.8578,323.57,-0.042395,-0.01066134,0.0,0 STARLINK-3989,1 52630U 22052AJ  22203.91667824 -.01066134  00000-0 -42395-1 0  9996,2 52630  53.2174 101.2708 0001362  53.8578 323.5700 15.27709142  1309,6860.799,94.259,483.599,481.73,0.0
52630.0,STARLINK-3989,PAYLOAD,2022-07-23 12:00:00,15.26378567,0.0001155999999999,53.2175,98.5779,71.7073,274.2787,-0.044061,-0.01064023,0.0,0 STARLINK-3989,1 52630U 22052AJ  22204.50001157 -.01064023  00000-0 -44061-1 0  9990,2 52630  53.2175  98.5779 0001156  71.7073 274.2787 15.26378567 11306,6864.786,94.341,487.445,485.857,0.0
52630.0,STARLINK-3989,PAYLOAD,2022-07-23 14:00:01,15.26188476,0.0001273,53.2173,98.1933,66.0611,18.126,-0.04432,-0.01064122,0.0,0 STARLINK-3989,1 52630U 22052AJ  22204.58335648 -.01064122  00000-0 -44320-1 0  9991,2 52630  53.2173  98.1933 0001273  66.0611  18.1260 15.26188476  1305,6865.356,94.353,488.095,486.347,0.0
52630.0,STARLINK-3989,PAYLOAD,2022-07-23 22:00:00,15.25429431,0.000159,53.2173,96.6596,50.2296,65.8707,-0.0453649999999999,-0.01064459,0.0,0 STARLINK-3989,1 52630U 22052AJ  22204.91667824 -.01064459  00000-0 -45365-1 0  9995,2 52630  53.2173  96.6596 0001590  50.2296  65.8707 15.25429431  1302,6867.6330000000025,94.4,490.59,488.406,0.0
52630.0,STARLINK-3989,PAYLOAD,2022-07-24 14:00:01,15.23911202,0.000147,53.2172,93.5928,63.2324,114.0865,-0.0475649999999999,-0.01066013,0.0,0 STARLINK-3989,1 52630U 22052AJ  22205.58334491 -.01066013  00000-0 -47565-1 0  9992,2 52630  53.2172  93.5928 0001470  63.2324 114.0865 15.23911202  1301,6872.194,94.494,495.069,493.049,0.0
52630.0,STARLINK-3989,PAYLOAD,2022-07-24 20:00:01,15.23340529,0.0001628,53.2175,92.4459,48.3941,60.9403,-0.048287,-0.01064069,0.0,0 STARLINK-3989,1 52630U 22052AJ  22205.83334491 -.01064069  00000-0 -48287-1 0  9991,2 52630  53.2175  92.4459 0001628  48.3941  60.9403 15.23340529 11503,6873.91,94.529,496.894,494.656,0.0
52630.0,STARLINK-3989,PAYLOAD,2022-07-24 22:00:00,15.23149057,0.0001661,53.2174,92.0644,52.4878,154.071,-0.048417,-0.01061119,0.0,0 STARLINK-3989,1 52630U 22052AJ  22205.91667824 -.01061119  00000-0 -48417-1 0  9997,2 52630  53.2174  92.0644 0001661  52.4878 154.0710 15.23149057  1302,6874.486,94.541,497.49300000000005,495.209,0.0
52630.0,STARLINK-3989,PAYLOAD,2022-07-25 14:00:01,15.21631074,0.0001388,53.2173,89.0081,66.4512,195.8503,-0.050756,-0.01063071,0.0,0 STARLINK-3989,1 52630U 22052AJ  22206.58334491 -.01063071  00000-0 -50756-1 0  9990,2 52630  53.2173  89.0081 0001388  66.4512 195.8503 15.21631074  1304,6879.057,94.635,501.877,499.968,0.0
52630.0,STARLINK-3989,PAYLOAD,2022-07-25 20:00:01,15.21059734,0.0001646,53.2175,87.8655,54.6881,137.5756,-0.0514559999999999,-0.01060021,0.0,0 STARLINK-3989,1 52630U 22052AJ  22206.83334491 -.01060021  00000-0 -51456-1 0  9998,2 52630  53.2175  87.8655 0001646  54.6881 137.5756 15.21059734 11653,6880.78,94.671,503.777,501.512,0.0
52630.0,STARLINK-3989,PAYLOAD,2022-07-25 22:00:00,15.20871005,0.0001511,53.2173,87.4853,54.2664,234.536,-0.051814,-0.01061328,0.0,0 STARLINK-3989,1 52630U 22052AJ  22206.91667824 -.01061328  00000-0 -51814-1 0  9995,2 52630  53.2173  87.4853 0001511  54.2664 234.5360 15.20871005  1305,6881.349,94.683,504.254,502.174,0.0
52630.0,STARLINK-3989,PAYLOAD,2022-07-26 12:00:00,15.19540349,0.0001439,53.2174,84.8197,62.3688,180.6178,-0.053745,-0.01058918,0.0,0 STARLINK-3989,1 52630U 22052AJ  22207.50001157 -.01058918  00000-0 -53745-1 0  9998,2 52630  53.2174  84.8197 0001439  62.3688 180.6178 15.19540349 11753,6885.366,94.765,508.222,506.24,0.0
52630.0,STARLINK-3989,PAYLOAD,2022-07-26 14:00:01,15.19350886,0.0001317,53.2173,84.4397,60.0881,278.9818,-0.0541049999999999,-0.01060003,0.0,0 STARLINK-3989,1 52630U 22052AJ  22207.58334491 -.01060003  00000-0 -54105-1 0  9995,2 52630  53.2173  84.4397 0001317  60.0881 278.9818 15.19350886  1302,6885.938,94.777,508.71,506.896,0.0
52630.0,STARLINK-3989,PAYLOAD,2022-07-26 22:00:00,15.18594137,0.0001536,53.2173,82.9221,46.6188,316.2129,-0.055522,-0.01077225,0.0,0 STARLINK-3989,1 52630U 22052AJ  22207.91667824 -.01077225  00000-0 -55522-1 0  9999,2 52630  53.2173  82.9221 0001536  46.6188 316.2129 15.18594137  1303,6888.226,94.825,511.149,509.033,0.0
52630.0,STARLINK-3989,PAYLOAD,2022-07-27 04:00:01,15.18023995,0.0001361999999999,53.2172,81.7837,59.0693,231.0499,-0.056371,-0.01075835,0.0,0 STARLINK-3989,1 52630U 22052AJ  22208.16668981 -.01075835  00000-0 -56371-1 0  9990,2 52630  53.2172  81.7837 0001362  59.0693 231.0499 15.18023995 11852,6889.95,94.86,512.754,510.877,0.0
52630.0,STARLINK-3989,PAYLOAD,2022-07-27 14:00:01,15.17072656,0.0001479,53.2172,79.887,49.7783,357.8456,-0.05781,-0.01073593,0.0,0 STARLINK-3989,1 52630U 22052AJ  22208.58334491 -.01073593  00000-0 -57810-1 0  9990,2 52630  53.2172  79.8870 0001479  49.7783 357.8456 15.17072656  1308,6892.83,94.92,515.715,513.6759999999998,0.0
52630.0,STARLINK-3989,PAYLOAD,2022-07-27 22:00:00,15.16316196,0.0001698,53.2174,78.3749,43.3268,25.3207,-0.0593529999999999,-0.0107822,0.0,0 STARLINK-3989,1 52630U 22052AJ  22208.91667824 -.01078220  00000-0 -59353-1 0  9992,2 52630  53.2174  78.3749 0001698  43.3268  25.3207 15.16316196  1300,6895.123000000001,94.967,518.158,515.817,0.0
52630.0,STARLINK-3989,PAYLOAD,2022-07-28 04:00:00,15.15745565,0.0001375,53.2172,77.2404,52.7763,301.0421,-0.06019,-0.01075831,0.0,0 STARLINK-3989,1 52630U 22052AJ  22209.16667824 -.01075831  00000-0 -60190-1 0  9996,2 52630  53.2172  77.2404 0001375  52.7763 301.0421 15.15745565 12017,6896.853,95.003,519.6659999999998,517.77,0.0
52630.0,STARLINK-3989,PAYLOAD,2022-07-28 14:00:01,15.14795137,0.0001597,53.2174,75.3503,51.4328,56.5306,-0.0617789999999999,-0.01074827,0.0,0 STARLINK-3989,1 52630U 22052AJ  22209.58334491 -.01074827  00000-0 -61779-1 0  9991,2 52630  53.2174  75.3503 0001597  51.4328  56.5306 15.14795137  1300,6899.738,95.062,522.7040000000002,520.501,0.0
52630.0,STARLINK-3989,PAYLOAD,2022-07-28 20:00:01,15.14226129,0.0001523,53.2174,74.2202,48.2341,343.5296,-0.062819,-0.0107535,0.0,0 STARLINK-3989,1 52630U 22052AJ  22209.83334491 -.01075350  00000-0 -62819-1 0  9997,2 52630  53.2174  74.2202 0001523  48.2341 343.5296 15.14226129 12110,6901.465999999999,95.098,524.382,522.28,0.0
52630.0,STARLINK-3989,PAYLOAD,2022-07-28 22:00:00,15.14036877,0.0001708,53.2173,73.8436,49.4618,76.788,-0.063249,-0.01076837,0.0,0 STARLINK-3989,1 52630U 22052AJ  22209.91667824 -.01076837  00000-0 -63249-1 0  9994,2 52630  53.2173  73.8436 0001708  49.4618  76.7880 15.14036877  1300,6902.041,95.11,525.085,522.727,0.0
